KUIPER-00589            
1 69767U 26151E   26199.24147003  .00008712  00000+0  24425-3 0  9995
2 69767  51.8762 165.6547 0005275 150.5309 209.5976 15.37386497  2487
KUIPER-00598            
1 69768U 26151F   26199.25002315  .00012023  00000+0  36591-3 0  9990
2 69768  51.8642 165.8361 0008560 173.1739 120.5182 15.34391793  3023
KUIPER-00604            
1 69769U 26151G   26199.29776699  .00011428  00000+0  30798-3 0  9999
2 69769  51.8806 165.2813 0002681 116.8427 243.2835 15.38287790  2491
KUIPER-00609            
1 69770U 26151H   26199.29346267  .00008098  00000+0  21859-3 0  9992
2 69770  51.8809 165.2531 0001247  57.8573 302.2536 15.38678520  2495
KUIPER-00611            
1 69771U 26151J   26199.29555239  .00012935  00000+0  34479-3 0  9991
2 69771  51.8812 165.2626 0001559 114.0784 246.0367 15.38502421  2494
KUIPER-00612            
1 69772U 26151K   26199.30085865  .00009166  00000+0  25156-3 0  9991
2 69772  51.8801 165.3029 0003629 124.6341 235.4988 15.37985494  2492
KUIPER-00614            
1 69773U 26151L   26199.29866812  .00010952  00000+0  29650-3 0  9997
2 69773  51.8810 165.2858 0002637 131.3075 228.8140 15.38195804  2494
KUIPER-00615            
1 69774U 26151M   26199.24327774  .00008768  00000+0  24667-3 0  9997
2 69774  51.8783 165.6659 0005989 157.5895 202.5354 15.37268254  2484
KUIPER-00616            
1 69775U 26151N   26199.29683612  .00022283  00000+0  58720-3 0  9994
2 69775  51.8793 165.2779 0002959 134.0384 226.0848 15.38429645  2496
KUIPER-00617            
1 69776U 26151P   26199.30226145  .00013390  00000+0  36426-3 0  9999
2 69776  51.8805 165.3116 0003759 144.4856 215.6382 15.37835329  2491
KUIPER-00619            
1 69777U 26151Q   26199.29447879  .00011987  00000+0  31937-3 0  9999
2 69777  51.8807 165.2590 0001820  65.7404 294.3774 15.38591696  2496
KUIPER-00621            
1 69778U 26151R   26199.29685145 -.00028602  00000+0 -73883-3 0  9990
2 69778  51.8803 165.2769 0002314 112.0327 248.0906 15.38280323  2495
KUIPER-00622            
1 69779U 26151S   26199.24554601  .00009157  00000+0  25964-3 0  9997
2 69779  51.8740 165.6799 0006861 156.8113 203.3184 15.36959265  2480
KUIPER-00623            
1 69780U 26151T   26198.26556190  .00133416  00000+0  34980-2 0  9998
2 69780  51.8777 170.3650 0006129 146.6000 213.5375 15.37672053  2337
KUIPER-00626            
1 69781U 26151U   26199.12802498 -.00052319  00000+0 -15116-2 0  9994
2 69781  51.8697 166.3843 0008716 175.5085 184.5981 15.35068983  2469
KUIPER-00627            
1 69782U 26151V   26199.13008722 -.00019508  00000+0 -55975-3 0  9995
2 69782  51.8687 166.3992 0010361 177.7443 182.3591 15.34740876  2465
